STARLINK-2510           
1 48329C 21036BF  26086.06923611 -.00135260  00000+0 -46760-2 0   868
2 48329  53.1549  20.2204 0001574  86.8701 342.0208 15.29436531    11
STARLINK-2501           
1 48330C 21036BG  26086.13034722 -.00123500  00000+0 -42721-2 0   861
2 48330  53.1550  19.8263 0001240  94.4832  32.3676 15.29411258    11
STARLINK-2514           
1 48331C 21036BH  26086.15048611 -.00037092  00000+0 -12835-2 0   869
2 48331  53.1554  19.7298 0001262  83.7424 175.5612 15.29356175    11
STARLINK-2518           
1 48333C 21036BK  26086.09562500 -.00124910  00000+0 -43193-2 0   869
2 48333  53.1547  20.1168 0001145  83.1109 201.0368 15.29422320    10
STARLINK-2470           
1 48334C 21036BL  26086.15534722  .00024002  00000+0  83049-3 0   866
2 48334  53.1552  19.8498 0001434  79.9038 187.8187 15.29327785    12
STARLINK-2613           
1 48353C 21038A   26086.08312500  .00004610  00000+0  15548-3 0   861
2 48353  53.1573 277.3320 0001065  68.7017 279.7961 15.30169110    13
STARLINK-2674           
1 48354C 21038B   26086.15534722 -.00024161  00000+0 -81485-3 0   860
2 48354  53.1572 277.0751 0000976  73.3991 289.8602 15.30183068    13
STARLINK-2635           
1 48355C 21038C   26086.07548611  .00009890  00000+0  33348-3 0   869
2 48355  53.1570 277.3792 0001039  70.4737 270.7424 15.30170545    14
STARLINK-2637           
1 48356C 21038D   26086.11159722 -.00007182  00000+0 -24220-3 0   869
2 48356  53.1570 277.2178 0001261  71.4341 126.2217 15.30173804    17
STARLINK-2636           
1 48357C 21038E   26086.03312500  .00025589  00000+0  86292-3 0   862
2 48357  53.1592 277.5685 0001408  81.9213  83.9279 15.30160235    16
STARLINK-2624           
1 48358C 21038F   26086.03798611  .00024557  00000+0  82805-3 0   864
2 48358  53.1583 277.5813 0001256  84.5170  96.4520 15.30163707    17
STARLINK-2628           
1 48359C 21038G   26086.10118056 -.00003702  00000+0 -12481-3 0   866
2 48359  53.1578 277.2677 0001366  83.8009 114.4999 15.30181902    10
STARLINK-2622           
1 48360C 21038H   26086.17618056 -.00028527  00000+0 -96175-3 0   864
2 48360  53.1585 276.9261 0001572  87.6733 181.3862 15.30195409    19
STARLINK-2591           
1 48361C 21038J   26086.11576389 -.00014627  00000+0 -49320-3 0   867
2 48361  53.1591 277.1794 0001187  88.7159 242.2616 15.30184832    19
STARLINK-2578           
1 48362C 21038K   26086.04909722  .00029187  00000+0  98384-3 0   860
2 48362  53.1574 277.5129 0000882  81.4612  96.8534 15.30172946    17
STARLINK-2611           
1 48364C 21038M   26086.07340278 -.00008971  00000+0 -30256-3 0   864
2 48364  53.1580 267.0644 0001044  76.7590 223.7983 15.30176195    14
STARLINK-2608           
1 48365C 21038N   26086.10812500 -.00020123  00000+0 -67846-3 0   869
2 48365  53.1566 266.9768 0001271  87.4785 114.0441 15.30190829    12
STARLINK-2643           
1 48367C 21038Q   26086.18590278 -.00017502  00000+0 -59028-3 0   864
2 48367  53.1572 264.1072 0000649  60.6980   3.7765 15.30178484    13
STARLINK-2623           
1 48368C 21038R   26086.14145833 -.00025626  00000+0 -86405-3 0   869
2 48368  53.1582 266.7222 0001067  93.2324 112.1028 15.30191020    17
STARLINK-2621           
1 48370C 21038T   26086.12131944 -.00024888  00000+0 -83892-3 0   864
2 48370  53.1576 266.8153 0001446  88.0071 134.0136 15.30199050    13
STARLINK-2589           
1 48371C 21038U   26086.06368056 -.00004669  00000+0 -15743-3 0   869
2 48371  53.1570 267.0863 0001125  84.3856 197.4359 15.30181248    13
STARLINK-2609           
1 48373C 21038W   26086.14354167 -.00027549  00000+0 -92901-3 0   861
2 48373  53.1580 264.4245 0001515  80.3366 145.3523 15.30186984    13
STARLINK-2604           
1 48374C 21038X   26086.12479167 -.00025829  00000+0 -87106-3 0   868
2 48374  53.1571 266.8139 0001156  86.2003 236.3232 15.30184796    13
STARLINK-2603           
1 48375C 21038Y   26086.10118056 -.00017593  00000+0 -59310-3 0   869
2 48375  53.1572 266.9222 0001366  89.3052 114.6544 15.30191761    14
STARLINK-2610           
1 48376C 21038Z   26086.05812500  .00002193  00000+0  73933-4 0   865
2 48376  53.1570 267.1263 0001045  75.6595 268.4183 15.30181692    14
STARLINK-2499           
1 48377C 21038AA  26086.04701389  .00009341  00000+0  31521-3 0   865
2 48377  53.1570 267.1799 0001023  96.2235 221.4520 15.30147162    13
STARLINK-2526           
1 48378C 21038AB  26086.16229167 -.00026520  00000+0 -89409-3 0   866
2 48378  53.1571 266.6823 0000940  98.3336 117.2549 15.30194923    19
STARLINK-2612           
1 48379C 21038AC  26086.12687500 -.00020540  00000+0 -69258-3 0   868
2 48379  53.1575 264.7506 0001109  87.7455  28.4296 15.30188076    17
STARLINK-2614           
1 48380C 21038AD  26086.08034722 -.00009343  00000+0 -31501-3 0   865
2 48380  53.1567 264.8139 0001104  79.1273 105.8946 15.30182396    12
STARLINK-2630           
1 48381C 21038AE  26086.11298611 -.00019410  00000+0 -65464-3 0   860
2 48381  53.1579 266.8566 0001159  88.0758 285.5461 15.30179416    16
STARLINK-2585           
1 48382C 21038AF  26086.01229167  .00033083  00000+0  11158-2 0   860
2 48382  53.1582 267.3296 0001191  71.6533 124.3766 15.30153138    13
STARLINK-2598           
1 48385C 21038AJ  26086.15395833 -.00027719  00000+0 -93483-3 0   865
2 48385  53.1569 264.2446 0000557  75.2554 138.3074 15.30184989    17
STARLINK-2606           
1 48386C 21038AK  26086.15256944 -.00046332  00000+0 -15618-2 0   860
2 48386  53.1596 264.4459 0001185  75.2854 223.3385 15.30209679    19
STARLINK-2594           
1 48388C 21038AM  26086.15256944 -.00028966  00000+0 -10010-2 0   866
2 48388  53.1558 264.1976 0001155  84.9019 205.5167 15.29393977    10
STARLINK-2586           
1 48390C 21038AP  26086.07409722 -.00021869  00000+0 -73746-3 0   865
2 48390  53.1578 251.9054 0001261  83.9294 116.3193 15.30185504    13
STARLINK-2607           
1 48391C 21038AQ  26086.09562500 -.00024630  00000+0 -85219-3 0   869
2 48391  53.1593 252.0812 0001359  88.2845 117.7290 15.29353207    11
STARLINK-2605           
1 48392C 21038AR  26086.07340278 -.00023433  00000+0 -79022-3 0   869
2 48392  53.1561 251.7898 0001185  77.3639 229.4664 15.30184587    15
STARLINK-2574           
1 48395C 21038AU  26086.07340278 -.00019918  00000+0 -67158-3 0   862
2 48395  53.1569 254.1913 0000991  77.4773 127.4709 15.30189664    13
STARLINK-2575           
1 48396C 21038AV  26086.14770833 -.00018352  00000+0 -61892-3 0   865
2 48396  53.1562 251.4526 0001045  82.4741 326.1800 15.30179812    13
STARLINK-2590           
1 48397C 21038AW  26086.08104167 -.00021875  00000+0 -73709-3 0   864
2 48397  53.1567 251.8606 0001001  82.8227 283.3046 15.30210602    16
STARLINK-2588           
1 48398C 21038AX  26086.05881944  .00004781  00000+0  24546-3 0   867
2 48398  53.0717 259.8379 0004528 163.7321  41.4949 15.15986326    10
STARLINK-2587           
1 48399C 21038AY  26086.08868056 -.00019706  00000+0 -66460-3 0   866
2 48399  53.1570 251.7829 0000861 100.9934  11.3045 15.30179805    15
STARLINK-2576           
1 48400C 21038AZ  26086.17131944 -.00014378  00000+0 -48471-3 0   860
2 48400  53.1575 251.4138 0001250  80.4529 138.8120 15.30191454    11
STARLINK-2571           
1 48401C 21038BA  26086.10673611 -.00026874  00000+0 -90634-3 0   868
2 48401  53.1592 251.9469 0001172  71.2749 204.1736 15.30183902    17
STARLINK-2593           
1 48404C 21038BD  26086.10048611 -.00024836  00000+0 -83748-3 0   861
2 48404  53.1578 251.8196 0001181  81.2304 125.0390 15.30187547    14
STARLINK-2570           
1 48405C 21038BE  26086.04354167 -.00007516  00000+0 -25340-3 0   861
2 48405  53.1563 252.2599 0000981  85.7971  90.9774 15.30184263    15
STARLINK-2568           
1 48406C 21038BF  26086.08243056 -.00019966  00000+0 -67337-3 0   864
2 48406  53.1570 254.7673 0000811  68.9961 295.5313 15.30180828    13
STARLINK-2592           
1 48408C 21038BH  26086.16368056 -.00011011  00000+0 -37138-3 0   862
2 48408  53.1562 251.9167 0001144  97.2275 323.4884 15.30172391    16
STARLINK-2563           
1 48410C 21038BK  26086.08937500 -.00000929  00000+0 -32144-4 0   861
2 48410  53.1559 215.3901 0001293  77.9545 343.4494 15.29345547    17
STARLINK-2505           
1 48411C 21038BL  26086.15604167  .00850940  00000+0  34723-1 0   866
2 48411  53.1308 212.6310 0001071  93.8243 277.1019 15.23468178    16
STARLINK-2581           
1 48412C 21038BM  26086.16854167  .00042840  00000+0  28708-2 0   864
2 48412  53.0542 213.5858 0001283  84.7408 295.4732 15.06371225    12
STARLINK-2461           
1 48428C 21040A   26086.04354167  .00022156  00000+0  74609-3 0   866
2 48428  53.1603  98.1263 0001180  90.9262 355.2929 15.30209048    11
STARLINK-2700           
1 48431C 21040D   26086.05604167 -.00036652  00000+0 -12659-2 0   863
2 48431  53.1555  71.5840 0001466  93.2272 335.1962 15.29417102    15
STARLINK-2680           
1 48432C 21040E   26086.18104167 -.00021191  00000+0 -14200-2 0   869
2 48432  53.0541  68.4933 0001329  77.1975 348.3369 15.06405302    18
STARLINK-2699           
1 48433C 21040F   26086.16090278 -.00036857  00000+0 -12757-2 0   865
2 48433  53.1560  71.1875 0001181  91.6991 334.6656 15.29349534    18
STARLINK-2692           
1 48434C 21040G   26086.06159722 -.00033181  00000+0 -11167-2 0   866
2 48434  53.1604  71.9972 0001466  82.6187 156.0738 15.30255436    13
STARLINK-2633           
1 48435C 21040H   26086.13868056 -.00067558  00000+0 -23337-2 0   869
2 48435  53.1563  84.1673 0001321  87.8594 314.3758 15.29428186    14
STARLINK-2639           
1 48436C 21040J   26086.06020833  .00015944  00000+0  53655-3 0   862
2 48436  53.1583  97.4847 0001200  96.3720 331.8606 15.30232882    13
STARLINK-2642           
1 48437C 21040K   26086.07062500  .00023603  00000+0  81517-3 0   860
2 48437  53.1566 110.3018 0001389  81.9244 350.3645 15.29388912    12
